[Satellite]
VERSION=1.1
NAME=AMC-21
NICKNAME=AMC-21
TLE1=1 33275U 08038B   15054.44997558  .00000011  00000-0  10000-3 0  9991
TLE2=2 33275   0.0453 300.6763 0001722  30.8483 218.5316  1.00271731 24034
